<?xml version="1.0" encoding="UTF-8"?>
<ndm xmlns:xsi="http://www.w3.org/2001/XMLSchema-instance" xsi:noNamespaceSchemaLocation="https://sanaregistry.org/r/ndmxml_unqualified/ndmxml-2.0.0-master-2.0.xsd">
<omm id="CCSDS_OMM_VERS" version="2.0">
<header><CREATION_DATE/><ORIGINATOR/></header><body><segment><metadata><OBJECT_NAME>ORBCOMM FM33</OBJECT_NAME><OBJECT_ID>1999-065D</OBJECT_ID><CENTER_NAME>EARTH</CENTER_NAME><REF_FRAME>TEME</REF_FRAME><TIME_SYSTEM>UTC</TIME_SYSTEM><MEAN_ELEMENT_THEORY>SGP4</MEAN_ELEMENT_THEORY></metadata><data><meanElements><EPOCH>2026-01-03T18:22:45.462144</EPOCH><MEAN_MOTION>14.40602786</MEAN_MOTION><ECCENTRICITY>.00071094</ECCENTRICITY><INCLINATION>45.0271</INCLINATION><RA_OF_ASC_NODE>124.9475</RA_OF_ASC_NODE><ARG_OF_PERICENTER>345.4491</ARG_OF_PERICENTER><MEAN_ANOMALY>14.6153</MEAN_ANOMALY></meanElements><tleParameters><EPHEMERIS_TYPE>0</EPHEMERIS_TYPE><CLASSIFICATION_TYPE>U</CLASSIFICATION_TYPE><NORAD_CAT_ID>25983</NORAD_CAT_ID><ELEMENT_SET_NO>999</ELEMENT_SET_NO><REV_AT_EPOCH>36498</REV_AT_EPOCH><BSTAR>.7846529E-3</BSTAR><MEAN_MOTION_DOT>.2383E-4</MEAN_MOTION_DOT><MEAN_MOTION_DDOT>0</MEAN_MOTION_DDOT></tleParameters></data></segment></body></omm>
<omm id="CCSDS_OMM_VERS" version="2.0">
<header><CREATION_DATE/><ORIGINATOR/></header><body><segment><metadata><OBJECT_NAME>ORBCOMM FM36</OBJECT_NAME><OBJECT_ID>1999-065E</OBJECT_ID><CENTER_NAME>EARTH</CENTER_NAME><REF_FRAME>TEME</REF_FRAME><TIME_SYSTEM>UTC</TIME_SYSTEM><MEAN_ELEMENT_THEORY>SGP4</MEAN_ELEMENT_THEORY></metadata><data><meanElements><EPOCH>2026-01-03T15:23:28.107456</EPOCH><MEAN_MOTION>14.38781089</MEAN_MOTION><ECCENTRICITY>.00022961</ECCENTRICITY><INCLINATION>45.0366</INCLINATION><RA_OF_ASC_NODE>220.5048</RA_OF_ASC_NODE><ARG_OF_PERICENTER>228.8067</ARG_OF_PERICENTER><MEAN_ANOMALY>131.2585</MEAN_ANOMALY></meanElements><tleParameters><EPHEMERIS_TYPE>0</EPHEMERIS_TYPE><CLASSIFICATION_TYPE>U</CLASSIFICATION_TYPE><NORAD_CAT_ID>25984</NORAD_CAT_ID><ELEMENT_SET_NO>999</ELEMENT_SET_NO><REV_AT_EPOCH>36328</REV_AT_EPOCH><BSTAR>.72612052E-3</BSTAR><MEAN_MOTION_DOT>.211E-4</MEAN_MOTION_DOT><MEAN_MOTION_DDOT>0</MEAN_MOTION_DDOT></tleParameters></data></segment></body></omm>
<omm id="CCSDS_OMM_VERS" version="2.0">
<header><CREATION_DATE/><ORIGINATOR/></header><body><segment><metadata><OBJECT_NAME>ORBCOMM FM35</OBJECT_NAME><OBJECT_ID>1999-065F</OBJECT_ID><CENTER_NAME>EARTH</CENTER_NAME><REF_FRAME>TEME</REF_FRAME><TIME_SYSTEM>UTC</TIME_SYSTEM><MEAN_ELEMENT_THEORY>SGP4</MEAN_ELEMENT_THEORY></metadata><data><meanElements><EPOCH>2026-01-03T23:27:26.725824</EPOCH><MEAN_MOTION>14.37684393</MEAN_MOTION><ECCENTRICITY>.00038488</ECCENTRICITY><INCLINATION>45.0370</INCLINATION><RA_OF_ASC_NODE>225.5848</RA_OF_ASC_NODE><ARG_OF_PERICENTER>331.6938</ARG_OF_PERICENTER><MEAN_ANOMALY>28.3701</MEAN_ANOMALY></meanElements><tleParameters><EPHEMERIS_TYPE>0</EPHEMERIS_TYPE><CLASSIFICATION_TYPE>U</CLASSIFICATION_TYPE><NORAD_CAT_ID>25985</NORAD_CAT_ID><ELEMENT_SET_NO>999</ELEMENT_SET_NO><REV_AT_EPOCH>36367</REV_AT_EPOCH><BSTAR>.59441389E-3</BSTAR><MEAN_MOTION_DOT>.1661E-4</MEAN_MOTION_DOT><MEAN_MOTION_DDOT>0</MEAN_MOTION_DDOT></tleParameters></data></segment></body></omm>
<omm id="CCSDS_OMM_VERS" version="2.0">
<header><CREATION_DATE/><ORIGINATOR/></header><body><segment><metadata><OBJECT_NAME>ORBCOMM FM34</OBJECT_NAME><OBJECT_ID>1999-065G</OBJECT_ID><CENTER_NAME>EARTH</CENTER_NAME><REF_FRAME>TEME</REF_FRAME><TIME_SYSTEM>UTC</TIME_SYSTEM><MEAN_ELEMENT_THEORY>SGP4</MEAN_ELEMENT_THEORY></metadata><data><meanElements><EPOCH>2026-01-03T16:00:15.108192</EPOCH><MEAN_MOTION>14.37623247</MEAN_MOTION><ECCENTRICITY>.00034536</ECCENTRICITY><INCLINATION>45.0377</INCLINATION><RA_OF_ASC_NODE>227.5307</RA_OF_ASC_NODE><ARG_OF_PERICENTER>279.6670</ARG_OF_PERICENTER><MEAN_ANOMALY>80.3788</MEAN_ANOMALY></meanElements><tleParameters><EPHEMERIS_TYPE>0</EPHEMERIS_TYPE><CLASSIFICATION_TYPE>U</CLASSIFICATION_TYPE><NORAD_CAT_ID>25986</NORAD_CAT_ID><ELEMENT_SET_NO>999</ELEMENT_SET_NO><REV_AT_EPOCH>36374</REV_AT_EPOCH><BSTAR>.50517527E-3</BSTAR><MEAN_MOTION_DOT>.1388E-4</MEAN_MOTION_DOT><MEAN_MOTION_DDOT>0</MEAN_MOTION_DDOT></tleParameters></data></segment></body></omm>
<omm id="CCSDS_OMM_VERS" version="2.0">
<header><CREATION_DATE/><ORIGINATOR/></header><body><segment><metadata><OBJECT_NAME>ORBCOMM FM38</OBJECT_NAME><OBJECT_ID>2008-031A</OBJECT_ID><CENTER_NAME>EARTH</CENTER_NAME><REF_FRAME>TEME</REF_FRAME><TIME_SYSTEM>UTC</TIME_SYSTEM><MEAN_ELEMENT_THEORY>SGP4</MEAN_ELEMENT_THEORY></metadata><data><meanElements><EPOCH>2025-12-17T18:26:38.517504</EPOCH><MEAN_MOTION>14.82282580</MEAN_MOTION><ECCENTRICITY>.00044354</ECCENTRICITY><INCLINATION>48.4372</INCLINATION><RA_OF_ASC_NODE>159.8035</RA_OF_ASC_NODE><ARG_OF_PERICENTER>120.0486</ARG_OF_PERICENTER><MEAN_ANOMALY>240.0870</MEAN_ANOMALY></meanElements><tleParameters><EPHEMERIS_TYPE>0</EPHEMERIS_TYPE><CLASSIFICATION_TYPE>U</CLASSIFICATION_TYPE><NORAD_CAT_ID>33060</NORAD_CAT_ID><ELEMENT_SET_NO>999</ELEMENT_SET_NO><REV_AT_EPOCH>94197</REV_AT_EPOCH><BSTAR>.20079684E-3</BSTAR><MEAN_MOTION_DOT>.1404E-4</MEAN_MOTION_DOT><MEAN_MOTION_DDOT>0</MEAN_MOTION_DDOT></tleParameters></data></segment></body></omm>
<omm id="CCSDS_OMM_VERS" version="2.0">
<header><CREATION_DATE/><ORIGINATOR/></header><body><segment><metadata><OBJECT_NAME>ORBCOMM FM41</OBJECT_NAME><OBJECT_ID>2008-031B</OBJECT_ID><CENTER_NAME>EARTH</CENTER_NAME><REF_FRAME>TEME</REF_FRAME><TIME_SYSTEM>UTC</TIME_SYSTEM><MEAN_ELEMENT_THEORY>SGP4</MEAN_ELEMENT_THEORY></metadata><data><meanElements><EPOCH>2026-01-03T16:57:53.633664</EPOCH><MEAN_MOTION>14.81939463</MEAN_MOTION><ECCENTRICITY>.00038745</ECCENTRICITY><INCLINATION>48.4431</INCLINATION><RA_OF_ASC_NODE>87.4460</RA_OF_ASC_NODE><ARG_OF_PERICENTER>182.0972</ARG_OF_PERICENTER><MEAN_ANOMALY>312.0132</MEAN_ANOMALY></meanElements><tleParameters><EPHEMERIS_TYPE>0</EPHEMERIS_TYPE><CLASSIFICATION_TYPE>U</CLASSIFICATION_TYPE><NORAD_CAT_ID>33061</NORAD_CAT_ID><ELEMENT_SET_NO>999</ELEMENT_SET_NO><REV_AT_EPOCH>94396</REV_AT_EPOCH><BSTAR>.43821402E-3</BSTAR><MEAN_MOTION_DOT>.3296E-4</MEAN_MOTION_DOT><MEAN_MOTION_DDOT>0</MEAN_MOTION_DDOT></tleParameters></data></segment></body></omm>
<omm id="CCSDS_OMM_VERS" version="2.0">
<header><CREATION_DATE/><ORIGINATOR/></header><body><segment><metadata><OBJECT_NAME>ORBCOMM FM29</OBJECT_NAME><OBJECT_ID>2008-031C</OBJECT_ID><CENTER_NAME>EARTH</CENTER_NAME><REF_FRAME>TEME</REF_FRAME><TIME_SYSTEM>UTC</TIME_SYSTEM><MEAN_ELEMENT_THEORY>SGP4</MEAN_ELEMENT_THEORY></metadata><data><meanElements><EPOCH>2026-01-03T16:15:58.375872</EPOCH><MEAN_MOTION>14.82094461</MEAN_MOTION><ECCENTRICITY>.00055574</ECCENTRICITY><INCLINATION>48.4383</INCLINATION><RA_OF_ASC_NODE>95.1197</RA_OF_ASC_NODE><ARG_OF_PERICENTER>177.2921</ARG_OF_PERICENTER><MEAN_ANOMALY>333.8038</MEAN_ANOMALY></meanElements><tleParameters><EPHEMERIS_TYPE>0</EPHEMERIS_TYPE><CLASSIFICATION_TYPE>U</CLASSIFICATION_TYPE><NORAD_CAT_ID>33062</NORAD_CAT_ID><ELEMENT_SET_NO>999</ELEMENT_SET_NO><REV_AT_EPOCH>94387</REV_AT_EPOCH><BSTAR>.50991796E-3</BSTAR><MEAN_MOTION_DOT>.3886E-4</MEAN_MOTION_DOT><MEAN_MOTION_DDOT>0</MEAN_MOTION_DDOT></tleParameters></data></segment></body></omm>

</ndm>
