ORBCOMM FM33            
1 25983U 99065D   26003.76580396  .00002383  00000+0  78465-3 0  9999
2 25983  45.0271 124.9475 0007109 345.4491  14.6153 14.40602786364985
ORBCOMM FM36            
1 25984U 99065E   26003.64129754  .00002110  00000+0  72612-3 0  9990
2 25984  45.0366 220.5048 0002296 228.8067 131.2585 14.38781089363283
ORBCOMM FM35            
1 25985U 99065F   26003.97739266  .00001661  00000+0  59441-3 0  9997
2 25985  45.0370 225.5848 0003848 331.6938  28.3701 14.37684393363674
ORBCOMM FM34            
1 25986U 99065G   26003.66684153  .00001388  00000+0  50518-3 0  9990
2 25986  45.0377 227.5307 0003453 279.6670  80.3788 14.37623247363742
ORBCOMM FM38            
1 33060U 08031A   25351.76850136  .00001404  00000+0  20080-3 0  9997
2 33060  48.4372 159.8035 0004435 120.0486 240.0870 14.82282580941971
ORBCOMM FM41            
1 33061U 08031B   26003.70687076  .00003296  00000+0  43821-3 0  9997
2 33061  48.4431  87.4460 0003874 182.0972 312.0132 14.81939463943960
ORBCOMM FM29            
1 33062U 08031C   26003.67775898  .00003886  00000+0  50992-3 0  9996
2 33062  48.4383  95.1197 0005557 177.2921 333.8038 14.82094461943877
